{
  "name": "SATGUS",
  "line1": "1 62713U 25009DJ  25241.26227939  .00007184  00000+0  64334-3 0  9991",
  "line2": "2 62713  97.7305 320.6259 0003024  60.1573 299.9949 14.96117929 33837",
  "fetched_at": "2025-08-30T00:16:40.104980+00:00"
}